SL-14 R/B,1 16792U 86046B   26085.98278230  .00000512  00000+0  56118-4 0  9991,2 16792  82.4799  63.8374 0023393 167.0572 193.1249 14.85606659128971,28.009835484498996,52.684441921148895,627174.6095466497
SL-14 R/B,1 16882U 86055B   26086.30501152  .00000424  00000+0  46032-4 0  9996,2 16882  82.5172 110.1131 0017307 274.2887  96.4057 14.85657679121986,62.52581540283286,-99.28909361741638,633400.0075814507
AJISAI (EGS),1 16908U 86061A   26086.32404609 -.00000092  00000+0  36347-4 0  9993,2 16908  50.0109  39.1204 0011330 332.5034 192.4689 12.44515633470192,-4.403189908059178,20.168016365611923,1480382.960349242
SL-14 R/B,1 17567U 87024B   26086.21186639  .00000492  00000+0  53193-4 0  9994,2 17567  82.5251  76.2895 0017663 197.9806 162.0788 14.86148277 90730,-63.80941381613872,-103.26476997354976,626076.7758091693
COSMOS 1833,1 17589U 87027A   26085.99140520 -.00000276  00000+0 -12191-3 0  9998,2 17589  70.9175 289.6533 0023366 189.1717 170.8981 14.13048350 12760,-22.23456940126445,101.97122798637561,840464.4212385548
SL-16 R/B,1 17590U 87027B   26086.26781019 -.00000141  00000+0 -46264-4 0  9995,2 17590  71.0013 239.4497 0002849  99.9045 260.2400 14.17165588 17832,-56.458707266364165,75.36700507303468,857916.6646033186
SL-14 R/B,1 17912U 87038B   26086.28320127  .00000474  00000+0  52054-4 0  9997,2 17912  82.4977 280.2293 0020725 105.3902 254.9606 14.85384512 81845,-42.70626720452611,92.29963907994218,635685.6661833966
COSMOS 1844,1 17973U 87041A   26086.14960611  .00000338  00000+0  20045-3 0  9994,2 17973  70.9013 357.3495 0030935 352.4072   7.6577 14.14555199  6055,54.129426258057464,133.4645755303863,866280.1750343565
SL-14 R/B,1 18153U 87055B   26086.18960728  .00000409  00000+0  44352-4 0  9990,2 18153  82.5010 332.5411 0019618 319.2360  40.7387 14.85646545 72538,2.829151335731221,-42.04961099040019,604535.5154262646
COSMOS 1867,1 18187U 87060A   26086.18608841 -.00000003  00000+0  36468-4 0  9998,2 18187  65.0091 257.7041 0014779 279.6896  80.2518 14.31505642 22446,-39.04232105163366,-139.98055354937478,792110.6828527554
SL-14 R/B,1 18749U 88001B   26086.25353565  .00000484  00000+0  53033-4 0  9995,2 18749  82.5162 178.8461 0018197 175.5762 184.5619 14.85546720 44632,20.892559154754277,166.80412684416655,625954.0230274594
COSMOS 1933,1 18958U 88020A   26085.86219372  .00004527  00000+0  22030-3 0  9995,2 18958  82.5119 233.9171 0005104 130.6300 229.5379 15.18142712 52835,30.38654585420244,-136.98821128139514,515855.77503605833
