CCSDS_OMM_VERS = 2.0
CREATION_DATE  = 
ORIGINATOR     = 

OBJECT_NAME    = SL-14 R/B
OBJECT_ID      = 1986-046B
CENTER_NAME    = EARTH
REF_FRAME      = TEME
TIME_SYSTEM    = UTC
MEAN_ELEMENT_THEORY = SGP/SGP4

EPOCH          = 2026-03-26T23:35:12.390720
MEAN_MOTION    = 14.85606659
ECCENTRICITY   = .0023393
INCLINATION    = 82.4799
RA_OF_ASC_NODE = 63.8374
ARG_OF_PERICENTER = 167.0572
MEAN_ANOMALY   = 193.1249

EPHEMERIS_TYPE = 0
CLASSIFICATION_TYPE = U
NORAD_CAT_ID   = 16792
ELEMENT_SET_NO = 999
REV_AT_EPOCH   = 12897
BSTAR          = .56118E-4
MEAN_MOTION_DOT = .512E-5
MEAN_MOTION_DDOT = 0

CCSDS_OMM_VERS = 2.0
CREATION_DATE  = 
ORIGINATOR     = 

OBJECT_NAME    = SL-14 R/B
OBJECT_ID      = 1986-055B
CENTER_NAME    = EARTH
REF_FRAME      = TEME
TIME_SYSTEM    = UTC
MEAN_ELEMENT_THEORY = SGP/SGP4

EPOCH          = 2026-03-27T07:19:12.995328
MEAN_MOTION    = 14.85657679
ECCENTRICITY   = .00173078
INCLINATION    = 82.5172
RA_OF_ASC_NODE = 110.1131
ARG_OF_PERICENTER = 274.2887
MEAN_ANOMALY   = 96.4057

EPHEMERIS_TYPE = 0
CLASSIFICATION_TYPE = U
NORAD_CAT_ID   = 16882
ELEMENT_SET_NO = 999
REV_AT_EPOCH   = 12198
BSTAR          = .46031557E-4
MEAN_MOTION_DOT = .424E-5
MEAN_MOTION_DDOT = 0

CCSDS_OMM_VERS = 2.0
CREATION_DATE  = 
ORIGINATOR     = 

OBJECT_NAME    = AJISAI (EGS)
OBJECT_ID      = 1986-061A
CENTER_NAME    = EARTH
REF_FRAME      = TEME
TIME_SYSTEM    = UTC
MEAN_ELEMENT_THEORY = SGP/SGP4

EPOCH          = 2026-03-27T07:46:37.582176
MEAN_MOTION    = 12.44515633
ECCENTRICITY   = .00113302
INCLINATION    = 50.0109
RA_OF_ASC_NODE = 39.1204
ARG_OF_PERICENTER = 332.5034
MEAN_ANOMALY   = 192.4689

EPHEMERIS_TYPE = 0
CLASSIFICATION_TYPE = U
NORAD_CAT_ID   = 16908
ELEMENT_SET_NO = 999
REV_AT_EPOCH   = 47019
BSTAR          = .36347042E-4
MEAN_MOTION_DOT = -.92E-6
MEAN_MOTION_DDOT = 0

CCSDS_OMM_VERS = 2.0
CREATION_DATE  = 
ORIGINATOR     = 

OBJECT_NAME    = SL-14 R/B
OBJECT_ID      = 1987-024B
CENTER_NAME    = EARTH
REF_FRAME      = TEME
TIME_SYSTEM    = UTC
MEAN_ELEMENT_THEORY = SGP/SGP4

EPOCH          = 2026-03-27T05:05:05.256096
MEAN_MOTION    = 14.86148277
ECCENTRICITY   = .00176635
INCLINATION    = 82.5251
RA_OF_ASC_NODE = 76.2895
ARG_OF_PERICENTER = 197.9806
MEAN_ANOMALY   = 162.0788

EPHEMERIS_TYPE = 0
CLASSIFICATION_TYPE = U
NORAD_CAT_ID   = 17567
ELEMENT_SET_NO = 999
REV_AT_EPOCH   = 9073
BSTAR          = .53193172E-4
MEAN_MOTION_DOT = .492E-5
MEAN_MOTION_DDOT = 0

CCSDS_OMM_VERS = 2.0
CREATION_DATE  = 
ORIGINATOR     = 

OBJECT_NAME    = COSMOS 1833
OBJECT_ID      = 1987-027A
CENTER_NAME    = EARTH
REF_FRAME      = TEME
TIME_SYSTEM    = UTC
MEAN_ELEMENT_THEORY = SGP/SGP4

EPOCH          = 2026-03-26T23:47:37.409280
MEAN_MOTION    = 14.13048350
ECCENTRICITY   = .0023366
INCLINATION    = 70.9175
RA_OF_ASC_NODE = 289.6533
ARG_OF_PERICENTER = 189.1717
MEAN_ANOMALY   = 170.8981

EPHEMERIS_TYPE = 0
CLASSIFICATION_TYPE = U
NORAD_CAT_ID   = 17589
ELEMENT_SET_NO = 999
REV_AT_EPOCH   = 1276
BSTAR          = -.12190527E-3
MEAN_MOTION_DOT = -.276E-5
MEAN_MOTION_DDOT = 0

CCSDS_OMM_VERS = 2.0
CREATION_DATE  = 
ORIGINATOR     = 

OBJECT_NAME    = SL-16 R/B
OBJECT_ID      = 1987-027B
CENTER_NAME    = EARTH
REF_FRAME      = TEME
TIME_SYSTEM    = UTC
MEAN_ELEMENT_THEORY = SGP/SGP4

EPOCH          = 2026-03-27T06:25:38.800416
MEAN_MOTION    = 14.17165588
ECCENTRICITY   = .0002849
INCLINATION    = 71.0013
RA_OF_ASC_NODE = 239.4497
ARG_OF_PERICENTER = 99.9045
MEAN_ANOMALY   = 260.2400

EPHEMERIS_TYPE = 0
CLASSIFICATION_TYPE = U
NORAD_CAT_ID   = 17590
ELEMENT_SET_NO = 999
REV_AT_EPOCH   = 1783
BSTAR          = -.46264083E-4
MEAN_MOTION_DOT = -.141E-5
MEAN_MOTION_DDOT = 0

CCSDS_OMM_VERS = 2.0
CREATION_DATE  = 
ORIGINATOR     = 

OBJECT_NAME    = SL-14 R/B
OBJECT_ID      = 1987-038B
CENTER_NAME    = EARTH
REF_FRAME      = TEME
TIME_SYSTEM    = UTC
MEAN_ELEMENT_THEORY = SGP/SGP4

EPOCH          = 2026-03-27T06:47:48.589728
MEAN_MOTION    = 14.85384512
ECCENTRICITY   = .00207251
INCLINATION    = 82.4977
RA_OF_ASC_NODE = 280.2293
ARG_OF_PERICENTER = 105.3902
MEAN_ANOMALY   = 254.9606

EPHEMERIS_TYPE = 0
CLASSIFICATION_TYPE = U
NORAD_CAT_ID   = 17912
ELEMENT_SET_NO = 999
REV_AT_EPOCH   = 8184
BSTAR          = .52054463E-4
MEAN_MOTION_DOT = .474E-5
MEAN_MOTION_DDOT = 0

CCSDS_OMM_VERS = 2.0
CREATION_DATE  = 
ORIGINATOR     = 

OBJECT_NAME    = COSMOS 1844
OBJECT_ID      = 1987-041A
CENTER_NAME    = EARTH
REF_FRAME      = TEME
TIME_SYSTEM    = UTC
MEAN_ELEMENT_THEORY = SGP/SGP4

EPOCH          = 2026-03-27T03:35:25.967904
MEAN_MOTION    = 14.14555199
ECCENTRICITY   = .00309355
INCLINATION    = 70.9013
RA_OF_ASC_NODE = 357.3495
ARG_OF_PERICENTER = 352.4072
MEAN_ANOMALY   = 7.6577

EPHEMERIS_TYPE = 0
CLASSIFICATION_TYPE = U
NORAD_CAT_ID   = 17973
ELEMENT_SET_NO = 999
REV_AT_EPOCH   = 605
BSTAR          = .20045076E-3
MEAN_MOTION_DOT = .338E-5
MEAN_MOTION_DDOT = 0

CCSDS_OMM_VERS = 2.0
CREATION_DATE  = 
ORIGINATOR     = 

OBJECT_NAME    = SL-14 R/B
OBJECT_ID      = 1987-055B
CENTER_NAME    = EARTH
REF_FRAME      = TEME
TIME_SYSTEM    = UTC
MEAN_ELEMENT_THEORY = SGP/SGP4

EPOCH          = 2026-03-27T04:33:02.068992
MEAN_MOTION    = 14.85646545
ECCENTRICITY   = .00196186
INCLINATION    = 82.5010
RA_OF_ASC_NODE = 332.5411
ARG_OF_PERICENTER = 319.2360
MEAN_ANOMALY   = 40.7387

EPHEMERIS_TYPE = 0
CLASSIFICATION_TYPE = U
NORAD_CAT_ID   = 18153
ELEMENT_SET_NO = 999
REV_AT_EPOCH   = 7253
BSTAR          = .44352224E-4
MEAN_MOTION_DOT = .409E-5
MEAN_MOTION_DDOT = 0

CCSDS_OMM_VERS = 2.0
CREATION_DATE  = 
ORIGINATOR     = 

OBJECT_NAME    = COSMOS 1867
OBJECT_ID      = 1987-060A
CENTER_NAME    = EARTH
REF_FRAME      = TEME
TIME_SYSTEM    = UTC
MEAN_ELEMENT_THEORY = SGP/SGP4

EPOCH          = 2026-03-27T04:27:58.038624
MEAN_MOTION    = 14.31505642
ECCENTRICITY   = .00147799
INCLINATION    = 65.0091
RA_OF_ASC_NODE = 257.7041
ARG_OF_PERICENTER = 279.6896
MEAN_ANOMALY   = 80.2518

EPHEMERIS_TYPE = 0
CLASSIFICATION_TYPE = U
NORAD_CAT_ID   = 18187
ELEMENT_SET_NO = 999
REV_AT_EPOCH   = 2244
BSTAR          = .364681E-4
MEAN_MOTION_DOT = -.3E-7
MEAN_MOTION_DDOT = 0

CCSDS_OMM_VERS = 2.0
CREATION_DATE  = 
ORIGINATOR     = 

OBJECT_NAME    = SL-14 R/B
OBJECT_ID      = 1988-001B
CENTER_NAME    = EARTH
REF_FRAME      = TEME
TIME_SYSTEM    = UTC
MEAN_ELEMENT_THEORY = SGP/SGP4

EPOCH          = 2026-03-27T06:05:05.480160
MEAN_MOTION    = 14.85546720
ECCENTRICITY   = .00181973
INCLINATION    = 82.5162
RA_OF_ASC_NODE = 178.8461
ARG_OF_PERICENTER = 175.5762
MEAN_ANOMALY   = 184.5619

EPHEMERIS_TYPE = 0
CLASSIFICATION_TYPE = U
NORAD_CAT_ID   = 18749
ELEMENT_SET_NO = 999
REV_AT_EPOCH   = 4463
BSTAR          = .53033251E-4
MEAN_MOTION_DOT = .484E-5
MEAN_MOTION_DDOT = 0

CCSDS_OMM_VERS = 2.0
CREATION_DATE  = 
ORIGINATOR     = 

OBJECT_NAME    = COSMOS 1933
OBJECT_ID      = 1988-020A
CENTER_NAME    = EARTH
REF_FRAME      = TEME
TIME_SYSTEM    = UTC
MEAN_ELEMENT_THEORY = SGP/SGP4

EPOCH          = 2026-03-26T20:41:33.537408
MEAN_MOTION    = 15.18142712
ECCENTRICITY   = .00051048
INCLINATION    = 82.5119
RA_OF_ASC_NODE = 233.9171
ARG_OF_PERICENTER = 130.6300
MEAN_ANOMALY   = 229.5379

EPHEMERIS_TYPE = 0
CLASSIFICATION_TYPE = U
NORAD_CAT_ID   = 18958
ELEMENT_SET_NO = 999
REV_AT_EPOCH   = 5283
BSTAR          = .2203035E-3
MEAN_MOTION_DOT = .4527E-4
MEAN_MOTION_DDOT = 0

